[{"OBJECT_NAME":"STARLINK-31419","OBJECT_ID":"2024-060W","EPOCH":"2026-03-09T13:21:37.596096","MEAN_MOTION":15.27578794,"ECCENTRICITY":0.00011522,"INCLINATION":42.9977,"RA_OF_ASC_NODE":260.5051,"ARG_OF_PERICENTER":278.1089,"MEAN_ANOMALY":81.9632,"EPHEMERIS_TYPE":0,"CLASSIFICATION_TYPE":"U","NORAD_CAT_ID":59368,"ELEMENT_SET_NO":999,"REV_AT_EPOCH":11004,"BSTAR":1.651149e-5,"MEAN_MOTION_DOT":1.92e-6,"MEAN_MOTION_DDOT":0},{"OBJECT_NAME":"OBJECT J","OBJECT_ID":"2026-023J","EPOCH":"2026-03-09T17:10:35.014656","MEAN_MOTION":15.23262782,"ECCENTRICITY":0.00239883,"INCLINATION":96.6344,"RA_OF_ASC_NODE":144.1739,"ARG_OF_PERICENTER":114.5009,"MEAN_ANOMALY":245.8735,"EPHEMERIS_TYPE":0,"CLASSIFICATION_TYPE":"U","NORAD_CAT_ID":67682,"ELEMENT_SET_NO":999,"REV_AT_EPOCH":484,"BSTAR":0.00057379131,"MEAN_MOTION_DOT":0.00013658,"MEAN_MOTION_DDOT":0}]
